49081,ONEWEB-0291,2021,109.29,148.0,+,87.91,Active,1,LEO,Kazakhstan,UK,Commercial,Communications,Soyuz,1 49081U 21075G   24279.52414481  .00000059  00000+0  11881-3 0  9995,2 49081  87.9094 129.3076 0001750  71.1441 288.9880 13.17650304152001,13.17650304,0.000175,LEO
49082,ONEWEB-0293,2021,109.29,148.0,+,87.91,Active,1,LEO,Kazakhstan,UK,Commercial,Communications,Soyuz,1 49082U 21075H   24279.54945080  .00000024  00000+0  27799-4 0  9990,2 49082  87.9100 129.3224 0001800  74.5424 285.5906 13.17651083152039,13.17651083,0.00018,LEO
49083,ONEWEB-0294,2021,109.72,148.0,+,87.88,Active,1,LEO,Kazakhstan,UK,Commercial,Communications,Soyuz,1 49083U 21075J   24279.52128094  .00000247  00000+0  65228-3 0  9992,2 49083  87.8845 114.0812 0002074  69.3115 290.8236 13.12444363153292,13.12444363,0.0002074,LEO
49084,ONEWEB-0295,2021,109.29,148.0,+,87.91,Active,1,LEO,Kazakhstan,UK,Commercial,Communications,Soyuz,1 49084U 21075K   24279.54861057 -.00001277  00000+0 -33219-2 0  9998,2 49084  87.9106 129.3005 0002306  68.3530 291.7847 13.17639405151996,13.17639405,0.0002306,LEO
49085,ONEWEB-0296,2021,109.72,148.0,+,87.89,Active,1,LEO,Kazakhstan,UK,Commercial,Communications,Soyuz,1 49085U 21075L   24279.50178914 -.00000354  00000+0 -10195-2 0  9991,2 49085  87.8850 114.0879 0001823  60.3196 299.8114 13.12441784153292,13.12441784,0.0001823,LEO
49086,ONEWEB-0297,2021,109.72,148.0,+,87.89,Active,1,LEO,Kazakhstan,UK,Commercial,Communications,Soyuz,1 49086U 21075M   24279.53263533  .00000476  00000+0  12879-2 0  9991,2 49086  87.8855 114.0971 0001543  82.5111 277.6193 13.12443463153908,13.12443463,0.0001543,LEO
49087,ONEWEB-0298,2021,109.29,148.0,+,87.91,Active,1,LEO,Kazakhstan,UK,Commercial,Communications,Soyuz,1 49087U 21075N   24279.55284434  .00000118  00000+0  27086-3 0  9997,2 49087  87.9100 129.3177 0001440  78.3587 281.7706 13.17650789152020,13.17650789,0.000144,LEO
49088,ONEWEB-0299,2021,109.29,148.0,+,87.91,Active,1,LEO,Kazakhstan,UK,Commercial,Communications,Soyuz,1 49088U 21075P   24279.55452115  .00000049  00000+0  93004-4 0  9998,2 49088  87.9096 129.2821 0001399  74.8116 285.3170 13.17648643152001,13.17648643,0.0001399,LEO
